CTC1_L_00189001-01
1 38162U 22845GY  26070.40833333  .00000000  00000+0  00000-0 0  9992
2 38162  85.0000   0.0000 0000000   0.0000   0.0000 13.69880518    15
CTC1_L_00189001-02
1 38163U 24492ZL  26070.40833333  .00000000  00000+0  00000-0 0  9993
2 38163  85.0000   0.0000 0000000   0.0000  90.0000 13.69880518    15
CTC1_L_00189001-03
1 38164U 23168WS  26070.40833333  .00000000  00000+0  00000-0 0  9993
2 38164  85.0000   0.0000 0000000   0.0000 180.0000 13.69880518    16
CTC1_L_00189001-04
1 38165U 24683AO  26070.40833333  .00000000  00000+0  00000-0 0  9997
2 38165  85.0000   0.0000 0000000   0.0000 270.0000 13.69880518    17
CTC1_L_00189002-01
1 38166U 26608EH  26070.40833333  .00000000  00000+0  00000-0 0  9997
2 38166  85.0000  12.0000 0000000   0.0000  12.0000 13.69880518    15
CTC1_L_00189002-02
1 38167U 26904MM  26070.40833333  .00000000  00000+0  00000-0 0  9997
2 38167  85.0000  12.0000 0000000   0.0000 102.0000 13.69880518    16
CTC1_L_00189002-03
1 38168U 26023HI  26070.40833333  .00000000  00000+0  00000-0 0  9990
2 38168  85.0000  12.0000 0000000   0.0000 192.0000 13.69880518    16
CTC1_L_00189002-04
1 38169U 26942FA  26070.40833333  .00000000  00000+0  00000-0 0  9991
2 38169  85.0000  12.0000 0000000   0.0000 282.0000 13.69880518    17
CTC1_L_00189003-01
1 38170U 22423GF  26070.40833333  .00000000  00000+0  00000-0 0  9993
2 38170  85.0000  24.0000 0000000   0.0000  24.0000 13.69880518    16
CTC1_L_00189003-02
1 38171U 25266ND  26070.40833333  .00000000  00000+0  00000-0 0  9992
2 38171  85.0000  24.0000 0000000   0.0000 114.0000 13.69880518    17
CTC1_L_00189003-03
1 38172U 22723JL  26070.40833333  .00000000  00000+0  00000-0 0  9998
2 38172  85.0000  24.0000 0000000   0.0000 204.0000 13.69880518    18
CTC1_L_00189003-04
1 38173U 25363RX  26070.40833333  .00000000  00000+0  00000-0 0  9992
2 38173  85.0000  24.0000 0000000   0.0000 294.0000 13.69880518    18
CTC1_L_00189004-01
1 38174U 25742NM  26070.40833333  .00000000  00000+0  00000-0 0  9994
2 38174  85.0000  36.0000 0000000   0.0000  36.0000 13.69880518    16
CTC1_L_00189004-02
1 38175U 25459YX  26070.40833333  .00000000  00000+0  00000-0 0  9990
2 38175  85.0000  36.0000 0000000   0.0000 126.0000 13.69880518    17
CTC1_L_00189004-03
1 38176U 25907NQ  26070.40833333  .00000000  00000+0  00000-0 0  9999
2 38176  85.0000  36.0000 0000000   0.0000 216.0000 13.69880518    18
CTC1_L_00189004-04
1 38177U 23533TD  26070.40833333  .00000000  00000+0  00000-0 0  9993
2 38177  85.0000  36.0000 0000000   0.0000 306.0000 13.69880518    19
CTC1_L_00189005-01
1 38178U 24854CU  26070.40833333  .00000000  00000+0  00000-0 0  9991
2 38178  85.0000  48.0000 0000000   0.0000  48.0000 13.69880518    16
CTC1_L_00189005-02
1 38179U 24469WL  26070.40833333  .00000000  00000+0  00000-0 0  9994
2 38179  85.0000  48.0000 0000000   0.0000 138.0000 13.69880518    17
CTC1_L_00189005-03
1 38180U 23589ZN  26070.40833333  .00000000  00000+0  00000-0 0  9998
2 38180  85.0000  48.0000 0000000   0.0000 228.0000 13.69880518    19
CTC1_L_00189005-04
1 38181U 24923FX  26070.40833333  .00000000  00000+0  00000-0 0  9992
2 38181  85.0000  48.0000 0000000   0.0000 318.0000 13.69880518    10
CTC1_L_00189006-01
1 38182U 26079WV  26070.40833333  .00000000  00000+0  00000-0 0  9997
2 38182  85.0000  60.0000 0000000   0.0000  60.0000 13.69880518    19
CTC1_L_00189006-02
1 38183U 24150RV  26070.40833333  .00000000  00000+0  00000-0 0  9996
2 38183  85.0000  60.0000 0000000   0.0000 150.0000 13.69880518    10
CTC1_L_00189006-03
1 38184U 23296XE  26070.40833333  .00000000  00000+0  00000-0 0  9997
2 38184  85.0000  60.0000 0000000   0.0000 240.0000 13.69880518    11
CTC1_L_00189006-04
1 38185U 26542TH  26070.40833333  .00000000  00000+0  00000-0 0  9995
2 38185  85.0000  60.0000 0000000   0.0000 330.0000 13.69880518    12
CTC1_L_00189007-01
1 38186U 26805HF  26070.40833333  .00000000  00000+0  00000-0 0  9998
2 38186  85.0000  72.0000 0000000   0.0000  72.0000 13.69880518    19
CTC1_L_00189007-02
1 38187U 25608XJ  26070.40833333  .00000000  00000+0  00000-0 0  9999
2 38187  85.0000  72.0000 0000000   0.0000 162.0000 13.69880518    10
CTC1_L_00189007-03
1 38188U 24952YQ  26070.40833333  .00000000  00000+0  00000-0 0  9991
2 38188  85.0000  72.0000 0000000   0.0000 252.0000 13.69880518    11
CTC1_L_00189007-04
1 38189U 24748ET  26070.40833333  .00000000  00000+0  00000-0 0  9995
2 38189  85.0000  72.0000 0000000   0.0000 342.0000 13.69880518    12
CTC1_L_00189008-01
1 38190U 26639WL  26070.40833333  .00000000  00000+0  00000-0 0  9998
2 38190  85.0000  84.0000 0000000   0.0000  84.0000 13.69880518    10
CTC1_L_00189008-02
1 38191U 22482LR  26070.40833333  .00000000  00000+0  00000-0 0  9991
2 38191  85.0000  84.0000 0000000   0.0000 174.0000 13.69880518    11
CTC1_L_00189008-03
1 38192U 25040PA  26070.40833333  .00000000  00000+0  00000-0 0  9995
2 38192  85.0000  84.0000 0000000   0.0000 264.0000 13.69880518    12
CTC1_L_00189008-04
1 38193U 22376SR  26070.40833333  .00000000  00000+0  00000-0 0  9995
2 38193  85.0000  84.0000 0000000   0.0000 354.0000 13.69880518    13
CTC1_L_00189009-01
1 38194U 24938LV  26070.40833333  .00000000  00000+0  00000-0 0  9992
2 38194  85.0000  96.0000 0000000   0.0000  96.0000 13.69880518    10
CTC1_L_00189009-02
1 38195U 23383YW  26070.40833333  .00000000  00000+0  00000-0 0  9996
2 38195  85.0000  96.0000 0000000   0.0000 186.0000 13.69880518    11
CTC1_L_00189009-03
1 38196U 26048AO  26070.40833333  .00000000  00000+0  00000-0 0  9998
2 38196  85.0000  96.0000 0000000   0.0000 276.0000 13.69880518    12
CTC1_L_00189009-04
1 38197U 23746LA  26070.40833333  .00000000  00000+0  00000-0 0  9991
2 38197  85.0000  96.0000 0000000   0.0000   6.0000 13.69880518    14
CTC1_L_00189010-01
1 38198U 22054XG  26070.40833333  .00000000  00000+0  00000-0 0  9993
2 38198  85.0000 108.0000 0000000   0.0000 108.0000 13.69880518    12
CTC1_L_00189010-02
1 38199U 26809NV  26070.40833333  .00000000  00000+0  00000-0 0  9996
2 38199  85.0000 108.0000 0000000   0.0000 198.0000 13.69880518    12
CTC1_L_00189010-03
1 38200U 22408UL  26070.40833333  .00000000  00000+0  00000-0 0  9990
2 38200  85.0000 108.0000 0000000   0.0000 288.0000 13.69880518    15
CTC1_L_00189010-04
1 38201U 24035AS  26070.40833333  .00000000  00000+0  00000-0 0  9999
2 38201  85.0000 108.0000 0000000   0.0000  18.0000 13.69880518    17
CTC1_L_00189011-01
1 38202U 26151CK  26070.40833333  .00000000  00000+0  00000-0 0  9991
2 38202  85.0000 120.0000 0000000   0.0000 120.0000 13.69880518    16
CTC1_L_00189011-02
1 38203U 24031AY  26070.40833333  .00000000  00000+0  00000-0 0  9997
2 38203  85.0000 120.0000 0000000   0.0000 210.0000 13.69880518    17
CTC1_L_00189011-03
1 38204U 22619YL  26070.40833333  .00000000  00000+0  00000-0 0  9998
2 38204  85.0000 120.0000 0000000   0.0000 300.0000 13.69880518    18
CTC1_L_00189011-04
1 38205U 25031V   26070.40833333  .00000000  00000+0  00000-0 0  9990
2 38205  85.0000 120.0000 0000000   0.0000  30.0000 13.69880518    19
CTC1_L_00189012-01
1 38206U 25605YE  26070.40833333  .00000000  00000+0  00000-0 0  9998
2 38206  85.0000 132.0000 0000000   0.0000 132.0000 13.69880518    16
CTC1_L_00189012-02
1 38207U 26045QV  26070.40833333  .00000000  00000+0  00000-0 0  9998
2 38207  85.0000 132.0000 0000000   0.0000 222.0000 13.69880518    17
CTC1_L_00189012-03
1 38208U 23369GS  26070.40833333  .00000000  00000+0  00000-0 0  9995
2 38208  85.0000 132.0000 0000000   0.0000 312.0000 13.69880518    18
CTC1_L_00189012-04
1 38209U 25894BN  26070.40833333  .00000000  00000+0  00000-0 0  9991
2 38209  85.0000 132.0000 0000000   0.0000  42.0000 13.69880518    19
CTC1_L_00189013-01
1 38210U 26398GF  26070.40833333  .00000000  00000+0  00000-0 0  9993
2 38210  85.0000 144.0000 0000000   0.0000 144.0000 13.69880518    17
CTC1_L_00189013-02
1 38211U 26437EU  26070.40833333  .00000000  00000+0  00000-0 0  9998
2 38211  85.0000 144.0000 0000000   0.0000 234.0000 13.69880518    18
CTC1_L_00189013-03
1 38212U 22709EN  26070.40833333  .00000000  00000+0  00000-0 0  9997
2 38212  85.0000 144.0000 0000000   0.0000 324.0000 13.69880518    19
CTC1_L_00189013-04
1 38213U 23356EC  26070.40833333  .00000000  00000+0  00000-0 0  9997
2 38213  85.0000 144.0000 0000000   0.0000  54.0000 13.69880518    10
CTC1_L_00189014-01
1 38214U 26221MI  26070.40833333  .00000000  00000+0  00000-0 0  9992
2 38214  85.0000 156.0000 0000000   0.0000 156.0000 13.69880518    17
CTC1_L_00189014-02
1 38215U 25766BE  26070.40833333  .00000000  00000+0  00000-0 0  9996
2 38215  85.0000 156.0000 0000000   0.0000 246.0000 13.69880518    18
CTC1_L_00189014-03
1 38216U 23961GK  26070.40833333  .00000000  00000+0  00000-0 0  9992
2 38216  85.0000 156.0000 0000000   0.0000 336.0000 13.69880518    19
CTC1_L_00189014-04
1 38217U 22265R   26070.40833333  .00000000  00000+0  00000-0 0  9999
2 38217  85.0000 156.0000 0000000   0.0000  66.0000 13.69880518    10
CTC1_L_00189015-01
1 38218U 26861DA  26070.40833333  .00000000  00000+0  00000-0 0  9996
2 38218  85.0000 168.0000 0000000   0.0000 168.0000 13.69880518    17
CTC1_L_00189015-02
1 38219U 24229AJ  26070.40833333  .00000000  00000+0  00000-0 0  9993
2 38219  85.0000 168.0000 0000000   0.0000 258.0000 13.69880518    18
CTC1_L_00189015-03
1 38220U 26691EB  26070.40833333  .00000000  00000+0  00000-0 0  9990
2 38220  85.0000 168.0000 0000000   0.0000 348.0000 13.69880518    10
CTC1_L_00189015-04
1 38221U 23071BM  26070.40833333  .00000000  00000+0  00000-0 0  9990
2 38221  85.0000 168.0000 0000000   0.0000  78.0000 13.69880518    11
CTC1_L_00189016-01
1 38222U 23170LV  26070.40833333  .00000000  00000+0  00000-0 0  9991
2 38222  85.0000 180.0000 0000000   0.0000 180.0000 13.69880518    10
CTC1_L_00189016-02
1 38223U 23367AF  26070.40833333  .00000000  00000+0  00000-0 0  9990
2 38223  85.0000 180.0000 0000000   0.0000 270.0000 13.69880518    11
